start=new Date('2023-01-01T00:00:00.000Z').valueOf();
sats=[{"OBJECT_ID":"2021-021AU","MEAN_MOTION":"15.06411419","ELEMENT_SET_NO":"999","RA_OF_ASC_NODE":"107.6587","BSTAR":"0.00039133000000","RCS_SIZE":"LARGE","PERIOD":"95.591","MEAN_MOTION_DDOT":"0.0000000000000","COUNTRY_CODE":"US","ARG_OF_PERICENTER":"41.3343","MEAN_MOTION_DOT":"0.00005554","TLE_LINE2":"2 47902  53.0534 107.6587 0001740  41.3343 318.7777 15.06411419100696","APOAPSIS":"548.384","SITE":"AFETR","DECAY_DATE":null,"REV_AT_EPOCH":"10069","NORAD_CAT_ID":"47902","OBJECT_NAME":"STARLINK-2362","REF_FRAME":"TEME","ECCENTRICITY":"0.00017400","SEMIMAJOR_AXIS":"6925.314","EPOCH":"2022-12-31T13:11:06.893376","MEAN_ANOMALY":"318.7777","TIME_SYSTEM":"UTC","OBJECT_TYPE":"PAYLOAD","CENTER_NAME":"EARTH","PERIAPSIS":"545.974","TLE_LINE1":"1 47902U 21021AU  22365.54938534  .00005554  00000-0  39133-3 0  9998","LAUNCH_DATE":"2021-03-14","EPHEMERIS_TYPE":"0","CLASSIFICATION_TYPE":"U","MEAN_ELEMENT_THEORY":"SGP4","FILE":"3728081","INCLINATION":"53.0534","GP_ID":"221890222"},{"TLE_LINE2":"2 47903  53.0541  86.9526 0001992  55.4886 304.6291 15.06402103101230","APOAPSIS":"548.587","SITE":"AFETR","MEAN_MOTION_DOT":"0.00001701","ECCENTRICITY":"0.00019920","REF_FRAME":"TEME","OBJECT_NAME":"STARLINK-2363","NORAD_CAT_ID":"47903","REV_AT_EPOCH":"10123","DECAY_DATE":null,"BSTAR":"0.00013307000000","RA_OF_ASC_NODE":"86.9526","ELEMENT_SET_NO":"999","MEAN_MOTION":"15.06402103","OBJECT_ID":"2021-021AV","ARG_OF_PERICENTER":"55.4886","COUNTRY_CODE":"US","MEAN_MOTION_DDOT":"0.0000000000000","PERIOD":"95.592","RCS_SIZE":"LARGE","CLASSIFICATION_TYPE":"U","EPHEMERIS_TYPE":"0","GP_ID":"221888981","INCLINATION":"53.0541","FILE":"3728081","MEAN_ELEMENT_THEORY":"SGP4","TIME_SYSTEM":"UTC","MEAN_ANOMALY":"304.6291","SEMIMAJOR_AXIS":"6925.342","EPOCH":"2022-12-31T16:55:19.761312","LAUNCH_DATE":"2021-03-14","TLE_LINE1":"1 47903U 21021AV  22365.70508983  .00001701  00000-0  13307-3 0  9993","PERIAPSIS":"545.828","CENTER_NAME":"EARTH","OBJECT_TYPE":"PAYLOAD"},{"PERIOD":"95.591","RCS_SIZE":"LARGE","MEAN_MOTION_DDOT":"0.0000000000000","ARG_OF_PERICENTER":"42.1686","COUNTRY_CODE":"US","ELEMENT_SET_NO":"999","RA_OF_ASC_NODE":"87.2742","OBJECT_ID":"2021-021AW","MEAN_MOTION":"15.06419400","BSTAR":"0.00044101000000","NORAD_CAT_ID":"47904","OBJECT_NAME":"STARLINK-2364","DECAY_DATE":null,"REV_AT_EPOCH":"10086","ECCENTRICITY":"0.00020100","REF_FRAME":"TEME","MEAN_MOTION_DOT":"0.00006297","SITE":"AFETR","TLE_LINE2":"2 47904  53.0560  87.2742 0002010  42.1686 317.9458 15.06419400100867","APOAPSIS":"548.546","OBJECT_TYPE":"PAYLOAD","TLE_LINE1":"1 47904U 21021AW  22365.63600615  .00006297  00000-0  44101-3 0  9992","PERIAPSIS":"545.762","LAUNCH_DATE":"2021-03-14","CENTER_NAME":"EARTH","MEAN_ANOMALY":"317.9458","SEMIMAJOR_AXIS":"6925.289","EPOCH":"2022-12-31T15:15:50.931360","TIME_SYSTEM":"UTC","INCLINATION":"53.0560","MEAN_ELEMENT_THEORY":"SGP4","FILE":"3728081","GP_ID":"221889231","EPHEMERIS_TYPE":"0","CLASSIFICATION_TYPE":"U"},{"BSTAR":"0.00060415000000","RA_OF_ASC_NODE":"87.2771","ELEMENT_SET_NO":"999","OBJECT_ID":"2021-021AX","MEAN_MOTION":"15.06418867","COUNTRY_CODE":"US","ARG_OF_PERICENTER":"36.3328","MEAN_MOTION_DDOT":"0.0000000000000","PERIOD":"95.591","RCS_SIZE":"LARGE","TLE_LINE2":"2 47905  53.0563  87.2771 0002363  36.3328 323.7821 15.06418867100991","SITE":"AFETR","APOAPSIS":"548.792","MEAN_MOTION_DOT":"0.00008733","ECCENTRICITY":"0.00023630","REF_FRAME":"TEME","OBJECT_NAME":"STARLINK-2365","NORAD_CAT_ID":"47905","REV_AT_EPOCH":"10099","DECAY_DATE":null,"TIME_SYSTEM":"UTC","MEAN_ANOMALY":"323.7821","SEMIMAJOR_AXIS":"6925.291","EPOCH":"2022-12-31T15:09:11.135232","LAUNCH_DATE":"2021-03-14","TLE_LINE1":"1 47905U 21021AX  22365.63137888  .00008733  00000-0  60415-3 0  9993","PERIAPSIS":"545.519","CENTER_NAME":"EARTH","OBJECT_TYPE":"PAYLOAD","CLASSIFICATION_TYPE":"U","EPHEMERIS_TYPE":"0","GP_ID":"221889983","INCLINATION":"53.0563","MEAN_ELEMENT_THEORY":"SGP4","FILE":"3728081"},{"OBJECT_TYPE":"PAYLOAD","CENTER_NAME":"EARTH","LAUNCH_DATE":"2021-03-14","TLE_LINE1":"1 47906U 21021AY  22365.77618768 -.00011534  00000-0 -66652-4 0  9995","PERIAPSIS":"338.830","SEMIMAJOR_AXIS":"6717.953","EPOCH":"2022-12-31T18:37:42.615552","MEAN_ANOMALY":"227.7872","TIME_SYSTEM":"UTC","FILE":"3728081","MEAN_ELEMENT_THEORY":"SGP4","INCLINATION":"53.0123","GP_ID":"221889722","EPHEMERIS_TYPE":"0","CLASSIFICATION_TYPE":"U","RCS_SIZE":"LARGE","PERIOD":"91.330","COUNTRY_CODE":"US","ARG_OF_PERICENTER":"132.3272","MEAN_MOTION_DDOT":"0.0000000000000","OBJECT_ID":"2021-021AY","MEAN_MOTION":"15.76693638","RA_OF_ASC_NODE":"187.2536","ELEMENT_SET_NO":"999","BSTAR":"-0.00006665200000","REV_AT_EPOCH":"10462","DECAY_DATE":null,"OBJECT_NAME":"STARLINK-2366","NORAD_CAT_ID":"47906","REF_FRAME":"TEME","ECCENTRICITY":"0.00014710","MEAN_MOTION_DOT":"-0.00011534","SITE":"AFETR","TLE_LINE2":"2 47906  53.0123 187.2536 0001471 132.3272 227.7872 15.76693638104629","APOAPSIS":"340.806"},{"CENTER_NAME":"EARTH","LAUNCH_DATE":"2021-03-14","PERIAPSIS":"546.034","TLE_LINE1":"1 47907U 21021AZ  22365.70787843  .00002770  00000-0  20476-3 0  9993","OBJECT_TYPE":"PAYLOAD","TIME_SYSTEM":"UTC","SEMIMAJOR_AXIS":"6925.347","EPOCH":"2022-12-31T16:59:20.696352","MEAN_ANOMALY":"309.0776","GP_ID":"221888481","MEAN_ELEMENT_THEORY":"SGP4","FILE":"3728081","INCLINATION":"53.0543","CLASSIFICATION_TYPE":"U","EPHEMERIS_TYPE":"0","COUNTRY_CODE":"US","ARG_OF_PERICENTER":"51.0364","MEAN_MOTION_DDOT":"0.0000000000000","RCS_SIZE":"LARGE","PERIOD":"95.592","BSTAR":"0.00020476000000","OBJECT_ID":"2021-021AZ","MEAN_MOTION":"15.06400616","RA_OF_ASC_NODE":"106.9400","ELEMENT_SET_NO":"999","REF_FRAME":"TEME","ECCENTRICITY":"0.00017010","REV_AT_EPOCH":"10057","DECAY_DATE":null,"OBJECT_NAME":"STARLINK-2367","NORAD_CAT_ID":"47907","TLE_LINE2":"2 47907  53.0543 106.9400 0001701  51.0364 309.0776 15.06400616100571","SITE":"AFETR","APOAPSIS":"548.390","MEAN_MOTION_DOT":"0.00002770"},{"EPHEMERIS_TYPE":"0","CLASSIFICATION_TYPE":"U","FILE":"3728081","MEAN_ELEMENT_THEORY":"SGP4","INCLINATION":"53.0533","GP_ID":"221888731","SEMIMAJOR_AXIS":"6925.283","EPOCH":"2022-12-31T17:09:57.110112","MEAN_ANOMALY":"307.4994","TIME_SYSTEM":"UTC","OBJECT_TYPE":"PAYLOAD","CENTER_NAME":"EARTH","TLE_LINE1":"1 47908U 21021BA  22365.71524433  .00000659  00000-0  63144-4 0  9993","PERIAPSIS":"545.834","LAUNCH_DATE":"2021-03-14","MEAN_MOTION_DOT":"0.00000659","SITE":"AFETR","TLE_LINE2":"2 47908  53.0533 106.9075 0001898  52.6167 307.4994 15.06421323100600","APOAPSIS":"548.463","DECAY_DATE":null,"REV_AT_EPOCH":"10060","NORAD_CAT_ID":"47908","OBJECT_NAME":"STARLINK-2368","REF_FRAME":"TEME","ECCENTRICITY":"0.00018980","OBJECT_ID":"2021-021BA","MEAN_MOTION":"15.06421323","ELEMENT_SET_NO":"999","RA_OF_ASC_NODE":"106.9075","BSTAR":"0.00006314400000","RCS_SIZE":"LARGE","PERIOD":"95.591","MEAN_MOTION_DDOT":"0.0000000000000","COUNTRY_CODE":"US","ARG_OF_PERICENTER":"52.6167"},{"GP_ID":"221889483","FILE":"3728081","MEAN_ELEMENT_THEORY":"SGP4","INCLINATION":"53.0553","CLASSIFICATION_TYPE":"U","EPHEMERIS_TYPE":"0","CENTER_NAME":"EARTH","TLE_LINE1":"1 47909U 21021BB  22365.66457716  .00001786  00000-0  13882-3 0  9992","PERIAPSIS":"546.065","LAUNCH_DATE":"2021-03-14","OBJECT_TYPE":"PAYLOAD","TIME_SYSTEM":"UTC","SEMIMAJOR_AXIS":"6925.372","EPOCH":"2022-12-31T15:56:59.466624","MEAN_ANOMALY":"321.7762","REF_FRAME":"TEME","ECCENTRICITY":"0.00016930","DECAY_DATE":null,"REV_AT_EPOCH":"10090","NORAD_CAT_ID":"47909","OBJECT_NAME":"STARLINK-2369","SITE":"AFETR","TLE_LINE2":"2 47909  53.0553  97.1363 0001693  38.3347 321.7762 15.06392330100908","APOAPSIS":"548.410","MEAN_MOTION_DOT":"0.00001786","MEAN_MOTION_DDOT":"0.0000000000000","ARG_OF_PERICENTER":"38.3347","COUNTRY_CODE":"US","RCS_SIZE":"LARGE","PERIOD":"95.593","BSTAR":"0.00013882000000","OBJECT_ID":"2021-021BB","MEAN_MOTION":"15.06392330","ELEMENT_SET_NO":"999","RA_OF_ASC_NODE":"97.1363"},{"RCS_SIZE":"LARGE","PERIOD":"95.592","COUNTRY_CODE":"US","ARG_OF_PERICENTER":"47.3294","MEAN_MOTION_DDOT":"0.0000000000000","MEAN_MOTION":"15.06407213","OBJECT_ID":"2021-021BC","RA_OF_ASC_NODE":"96.9749","ELEMENT_SET_NO":"999","BSTAR":"0.00022809000000","REV_AT_EPOCH":"10076","DECAY_DATE":null,"OBJECT_NAME":"STARLINK-2370","NORAD_CAT_ID":"47910","REF_FRAME":"TEME","ECCENTRICITY":"0.00017410","MEAN_MOTION_DOT":"0.00003118","TLE_LINE2":"2 47910  53.0536  96.9749 0001741  47.3294 312.7841 15.06407213100760","APOAPSIS":"548.397","SITE":"AFETR","OBJECT_TYPE":"PAYLOAD","CENTER_NAME":"EARTH","LAUNCH_DATE":"2021-03-14","TLE_LINE1":"1 47910U 21021BC  22365.70047826  .00003118  00000-0  22809-3 0  9996","PERIAPSIS":"545.986","EPOCH":"2022-12-31T16:48:41.321664","SEMIMAJOR_AXIS":"6925.326","MEAN_ANOMALY":"312.7841","TIME_SYSTEM":"UTC","FILE":"3728081","MEAN_ELEMENT_THEORY":"SGP4","INCLINATION":"53.0536","GP_ID":"221890223","EPHEMERIS_TYPE":"0","CLASSIFICATION_TYPE":"U"},{"CENTER_NAME":"EARTH","PERIAPSIS":"546.173","TLE_LINE1":"1 47911U 21021BD  22365.71666460  .00004085  00000-0  29291-3 0  9995","LAUNCH_DATE":"2021-03-14","OBJECT_TYPE":"PAYLOAD","TIME_SYSTEM":"UTC","SEMIMAJOR_AXIS":"6925.333","EPOCH":"2022-12-31T17:11:59.821440","MEAN_ANOMALY":"298.1995","GP_ID":"221888982","MEAN_ELEMENT_THEORY":"SGP4","FILE":"3728081","INCLINATION":"53.0572","CLASSIFICATION_TYPE":"U","EPHEMERIS_TYPE":"0","MEAN_MOTION_DDOT":"0.0000000000000","ARG_OF_PERICENTER":"61.9143","COUNTRY_CODE":"US","RCS_SIZE":"LARGE","PERIOD":"95.592","BSTAR":"0.00029291000000","OBJECT_ID":"2021-021BD","MEAN_MOTION":"15.06405232","ELEMENT_SET_NO":"999","RA_OF_ASC_NODE":"112.1538","REF_FRAME":"TEME","ECCENTRICITY":"0.00014790","DECAY_DATE":null,"REV_AT_EPOCH":"10038","NORAD_CAT_ID":"47911","OBJECT_NAME":"STARLINK-2371","TLE_LINE2":"2 47911  53.0572 112.1538 0001479  61.9143 298.1995 15.06405232100385","APOAPSIS":"548.222","SITE":"AFETR","MEAN_MOTION_DOT":"0.00004085"}];
